ONEWEB-0685             
1 54679U 22166AP  26190.11991146 -.00000074  00000+0 -21045-3 0  9995
2 54679  87.9246 239.6139 0001807  81.2820 278.8519 13.21847721174311
ONEWEB-0712             
1 54680U 22166AQ  26190.09913056  .00000130  00000+0  30590-3 0  9994
2 54680  87.9113 224.4234 0001544 107.4123 252.7177 13.16595559174942
ONEWEB-0714             
1 54681U 22166AR  26190.12523871 -.00002689  00000+0 -65434-2 0  9998
2 54681  87.9200 239.6164 0001068  63.9641 296.1602 13.21835326174436
ONEWEB-0532             
1 55140U 23004A   26189.75024791  .00000066  00000+0  13792-3 0  9991
2 55140  87.9133   1.5735 0002085  82.9722 277.1647 13.17648451170422
ONEWEB-0533             
1 55141U 23004B   26190.71866139  .00000318  00000+0  84954-3 0  9998
2 55141  87.8957 346.1897 0001672  92.0994 268.0326 13.12443009171013
ONEWEB-0541             
1 55142U 23004C   26190.76614139 -.00000328  00000+0 -96171-3 0  9992
2 55142  87.8890  16.5634 0002032  89.8419 270.2942 13.11415165168908
ONEWEB-0543             
1 55143U 23004D   26190.62331459  .00000050  00000+0  94039-4 0  9991
2 55143  87.9181 331.0059 0001787 105.0538 255.0792 13.18686634172657
ONEWEB-0544             
1 55144U 23004E   26190.61656906 -.00000003  00000+0 -40377-4 0  9994
2 55144  87.9177 331.0070 0001982 102.6328 257.5025 13.18687306172656
ONEWEB-0560             
1 55145U 23004F   26190.68569487 -.00000049  00000+0 -15622-3 0  9993
2 55145  87.9182 330.9827 0001976 105.7841 254.3509 13.18684229172673
ONEWEB-0565             
1 55146U 23004G   26190.67896425  .00000026  00000+0  32085-4 0  9994
2 55146  87.9172 331.0099 0002272  96.7804 263.3587 13.18686930172660
ONEWEB-0567             
1 55147U 23004H   26190.67221537  .00000076  00000+0  16125-3 0  9992
2 55147  87.9181 330.9976 0002222 101.1928 258.9454 13.18687154172668
ONEWEB-0569             
1 55148U 23004J   26190.63286479  .00000251  00000+0  65364-3 0  9999
2 55148  87.8988 315.7527 0002614 114.1832 245.9571 13.13473073173125
ONEWEB-0570             
1 55149U 23004K   26189.90501779  .00000043  00000+0  75210-4 0  9992
2 55149  87.9175 331.1479 0002082  89.3778 270.7593 13.18686880172557
ONEWEB-0571             
1 55150U 23004L   26189.89828253  .00000092  00000+0  19933-3 0  9994
2 55150  87.9174 331.1490 0003094 108.3067 251.8402 13.18685257172565
ONEWEB-0572             
1 55151U 23004M   26190.76864088  .00000107  00000+0  24242-3 0  9995
2 55151  87.9137   1.3725 0002007  92.5116 267.6245 13.17651024170454
ONEWEB-0573             
1 55152U 23004N   26190.65028443 -.00000057  00000+0 -17719-3 0  9998
2 55152  87.9180 331.0011 0002727 100.7847 259.3592 13.18687007172654
