{"fetched_at":"2026-07-10T07:58:41.598Z","source":"https://celestrak.org/NORAD/elements/gp.php?GROUP=oneweb&FORMAT=JSON","constellation":"oneweb","records":[{"OBJECT_NAME":"ONEWEB-0685","OBJECT_ID":"2022-166AP","EPOCH":"2026-07-09T02:52:40.350144","CLASSIFICATION_TYPE":"U","MEAN_MOTION":13.21847721,"ECCENTRICITY":0.00018076,"INCLINATION":87.9246,"RA_OF_ASC_NODE":239.6139,"ARG_OF_PERICENTER":81.282,"MEAN_ANOMALY":278.8519,"EPHEMERIS_TYPE":0,"NORAD_CAT_ID":54679,"ELEMENT_SET_NO":999,"REV_AT_EPOCH":17431,"BSTAR":-0.00021045093,"MEAN_MOTION_DOT":-7.4e-7,"MEAN_MOTION_DDOT":0},{"OBJECT_NAME":"ONEWEB-0712","OBJECT_ID":"2022-166AQ","EPOCH":"2026-07-09T02:22:44.880384","CLASSIFICATION_TYPE":"U","MEAN_MOTION":13.16595559,"ECCENTRICITY":0.00015441,"INCLINATION":87.9113,"RA_OF_ASC_NODE":224.4234,"ARG_OF_PERICENTER":107.4123,"MEAN_ANOMALY":252.7177,"EPHEMERIS_TYPE":0,"NORAD_CAT_ID":54680,"ELEMENT_SET_NO":999,"REV_AT_EPOCH":17494,"BSTAR":0.00030590388,"MEAN_MOTION_DOT":0.0000013,"MEAN_MOTION_DDOT":0},{"OBJECT_NAME":"ONEWEB-0714","OBJECT_ID":"2022-166AR","EPOCH":"2026-07-09T03:00:20.624544","CLASSIFICATION_TYPE":"U","MEAN_MOTION":13.21835326,"ECCENTRICITY":0.0001068,"INCLINATION":87.92,"RA_OF_ASC_NODE":239.6164,"ARG_OF_PERICENTER":63.9641,"MEAN_ANOMALY":296.1602,"EPHEMERIS_TYPE":0,"NORAD_CAT_ID":54681,"ELEMENT_SET_NO":999,"REV_AT_EPOCH":17443,"BSTAR":-0.0065433628,"MEAN_MOTION_DOT":-0.00002689,"MEAN_MOTION_DDOT":0},{"OBJECT_NAME":"ONEWEB-0532","OBJECT_ID":"2023-004A","EPOCH":"2026-07-08T18:00:21.419424","CLASSIFICATION_TYPE":"U","MEAN_MOTION":13.17648451,"ECCENTRICITY":0.00020851,"INCLINATION":87.9133,"RA_OF_ASC_NODE":1.5735,"ARG_OF_PERICENTER":82.9722,"MEAN_ANOMALY":277.1647,"EPHEMERIS_TYPE":0,"NORAD_CAT_ID":55140,"ELEMENT_SET_NO":999,"REV_AT_EPOCH":17042,"BSTAR":0.00013791719,"MEAN_MOTION_DOT":6.6e-7,"MEAN_MOTION_DDOT":0},{"OBJECT_NAME":"ONEWEB-0533","OBJECT_ID":"2023-004B","EPOCH":"2026-07-09T17:14:52.344096","CLASSIFICATION_TYPE":"U","MEAN_MOTION":13.12443009,"ECCENTRICITY":0.0001672,"INCLINATION":87.8957,"RA_OF_ASC_NODE":346.1897,"ARG_OF_PERICENTER":92.0994,"MEAN_ANOMALY":268.0326,"EPHEMERIS_TYPE":0,"NORAD_CAT_ID":55141,"ELEMENT_SET_NO":999,"REV_AT_EPOCH":17101,"BSTAR":0.00084954,"MEAN_MOTION_DOT":0.00000318,"MEAN_MOTION_DDOT":0},{"OBJECT_NAME":"ONEWEB-0541","OBJECT_ID":"2023-004C","EPOCH":"2026-07-09T18:23:14.616096","CLASSIFICATION_TYPE":"U","MEAN_MOTION":13.11415165,"ECCENTRICITY":0.0002032,"INCLINATION":87.889,"RA_OF_ASC_NODE":16.5634,"ARG_OF_PERICENTER":89.8419,"MEAN_ANOMALY":270.2942,"EPHEMERIS_TYPE":0,"NORAD_CAT_ID":55142,"ELEMENT_SET_NO":999,"REV_AT_EPOCH":16890,"BSTAR":-0.00096171,"MEAN_MOTION_DOT":-0.00000328,"MEAN_MOTION_DDOT":0},{"OBJECT_NAME":"ONEWEB-0543","OBJECT_ID":"2023-004D","EPOCH":"2026-07-09T14:57:34.380576","CLASSIFICATION_TYPE":"U","MEAN_MOTION":13.18686634,"ECCENTRICITY":0.0001787,"INCLINATION":87.9181,"RA_OF_ASC_NODE":331.0059,"ARG_OF_PERICENTER":105.0538,"MEAN_ANOMALY":255.0792,"EPHEMERIS_TYPE":0,"NORAD_CAT_ID":55143,"ELEMENT_SET_NO":999,"REV_AT_EPOCH":17265,"BSTAR":0.000094039,"MEAN_MOTION_DOT":5e-7,"MEAN_MOTION_DDOT":0},{"OBJECT_NAME":"ONEWEB-0544","OBJECT_ID":"2023-004E","EPOCH":"2026-07-09T14:47:51.566784","CLASSIFICATION_TYPE":"U","MEAN_MOTION":13.18687306,"ECCENTRICITY":0.0001982,"INCLINATION":87.9177,"RA_OF_ASC_NODE":331.007,"ARG_OF_PERICENTER":102.6328,"MEAN_ANOMALY":257.5025,"EPHEMERIS_TYPE":0,"NORAD_CAT_ID":55144,"ELEMENT_SET_NO":999,"REV_AT_EPOCH":17265,"BSTAR":-0.000040377,"MEAN_MOTION_DOT":-3e-8,"MEAN_MOTION_DDOT":0},{"OBJECT_NAME":"ONEWEB-0560","OBJECT_ID":"2023-004F","EPOCH":"2026-07-09T16:27:24.036768","CLASSIFICATION_TYPE":"U","MEAN_MOTION":13.18684229,"ECCENTRICITY":0.0001976,"INCLINATION":87.9182,"RA_OF_ASC_NODE":330.9827,"ARG_OF_PERICENTER":105.7841,"MEAN_ANOMALY":254.3509,"EPHEMERIS_TYPE":0,"NORAD_CAT_ID":55145,"ELEMENT_SET_NO":999,"REV_AT_EPOCH":17267,"BSTAR":-0.00015622,"MEAN_MOTION_DOT":-4.9e-7,"MEAN_MOTION_DDOT":0},{"OBJECT_NAME":"ONEWEB-0565","OBJECT_ID":"2023-004G","EPOCH":"2026-07-09T16:17:42.511200","CLASSIFICATION_TYPE":"U","MEAN_MOTION":13.1868693,"ECCENTRICITY":0.0002272,"INCLINATION":87.9172,"RA_OF_ASC_NODE":331.0099,"ARG_OF_PERICENTER":96.7804,"MEAN_ANOMALY":263.3587,"EPHEMERIS_TYPE":0,"NORAD_CAT_ID":55146,"ELEMENT_SET_NO":999,"REV_AT_EPOCH":17266,"BSTAR":0.000032085,"MEAN_MOTION_DOT":2.6e-7,"MEAN_MOTION_DDOT":0},{"OBJECT_NAME":"ONEWEB-0567","OBJECT_ID":"2023-004H","EPOCH":"2026-07-09T16:07:59.407968","CLASSIFICATION_TYPE":"U","MEAN_MOTION":13.18687154,"ECCENTRICITY":0.0002222,"INCLINATION":87.9181,"RA_OF_ASC_NODE":330.9976,"ARG_OF_PERICENTER":101.1928,"MEAN_ANOMALY":258.9454,"EPHEMERIS_TYPE":0,"NORAD_CAT_ID":55147,"ELEMENT_SET_NO":999,"REV_AT_EPOCH":17266,"BSTAR":0.00016125,"MEAN_MOTION_DOT":7.6e-7,"MEAN_MOTION_DDOT":0},{"OBJECT_NAME":"ONEWEB-0569","OBJECT_ID":"2023-004J","EPOCH":"2026-07-09T15:11:19.517856","CLASSIFICATION_TYPE":"U","MEAN_MOTION":13.13473073,"ECCENTRICITY":0.0002614,"INCLINATION":87.8988,"RA_OF_ASC_NODE":315.7527,"ARG_OF_PERICENTER":114.1832,"MEAN_ANOMALY":245.9571,"EPHEMERIS_TYPE":0,"NORAD_CAT_ID":55148,"ELEMENT_SET_NO":999,"REV_AT_EPOCH":17312,"BSTAR":0.00065364,"MEAN_MOTION_DOT":0.00000251,"MEAN_MOTION_DDOT":0},{"OBJECT_NAME":"ONEWEB-0570","OBJECT_ID":"2023-004K","EPOCH":"2026-07-08T21:43:13.537056","CLASSIFICATION_TYPE":"U","MEAN_MOTION":13.1868688,"ECCENTRICITY":0.00020824,"INCLINATION":87.9175,"RA_OF_ASC_NODE":331.1479,"ARG_OF_PERICENTER":89.3778,"MEAN_ANOMALY":270.7593,"EPHEMERIS_TYPE":0,"NORAD_CAT_ID":55149,"ELEMENT_SET_NO":999,"REV_AT_EPOCH":17255,"BSTAR":0.000075210485,"MEAN_MOTION_DOT":4.3e-7,"MEAN_MOTION_DDOT":0},{"OBJECT_NAME":"ONEWEB-0571","OBJECT_ID":"2023-004L","EPOCH":"2026-07-08T21:33:31.610592","CLASSIFICATION_TYPE":"U","MEAN_MOTION":13.18685257,"ECCENTRICITY":0.0003094,"INCLINATION":87.9174,"RA_OF_ASC_NODE":331.149,"ARG_OF_PERICENTER":108.3067,"MEAN_ANOMALY":251.8402,"EPHEMERIS_TYPE":0,"NORAD_CAT_ID":55150,"ELEMENT_SET_NO":999,"REV_AT_EPOCH":17256,"BSTAR":0.00019933474,"MEAN_MOTION_DOT":9.2e-7,"MEAN_MOTION_DDOT":0},{"OBJECT_NAME":"ONEWEB-0572","OBJECT_ID":"2023-004M","EPOCH":"2026-07-09T18:26:50.572032","CLASSIFICATION_TYPE":"U","MEAN_MOTION":13.17651024,"ECCENTRICITY":0.0002007,"INCLINATION":87.9137,"RA_OF_ASC_NODE":1.3725,"ARG_OF_PERICENTER":92.5116,"MEAN_ANOMALY":267.6245,"EPHEMERIS_TYPE":0,"NORAD_CAT_ID":55151,"ELEMENT_SET_NO":999,"REV_AT_EPOCH":17045,"BSTAR":0.00024242,"MEAN_MOTION_DOT":0.00000107,"MEAN_MOTION_DDOT":0},{"OBJECT_NAME":"ONEWEB-0573","OBJECT_ID":"2023-004N","EPOCH":"2026-07-09T15:36:24.574752","CLASSIFICATION_TYPE":"U","MEAN_MOTION":13.18687007,"ECCENTRICITY":0.0002727,"INCLINATION":87.918,"RA_OF_ASC_NODE":331.0011,"ARG_OF_PERICENTER":100.7847,"MEAN_ANOMALY":259.3592,"EPHEMERIS_TYPE":0,"NORAD_CAT_ID":55152,"ELEMENT_SET_NO":999,"REV_AT_EPOCH":17265,"BSTAR":-0.00017719,"MEAN_MOTION_DOT":-5.7e-7,"MEAN_MOTION_DDOT":0}]}
